ONEWEB-0198             
1 48216U 21031G   24063.60551663  .00000196  00000+0  49547-3 0  9992
2 48216  87.8902  96.0296 0001446  93.1352 266.9943 13.14504590138718
ONEWEB-0189             
1 48217U 21031H   24063.61820664  .00000207  00000+0  52442-3 0  9995
2 48217  87.8903  96.0033 0001375  94.4095 265.7191 13.14503584138453
ONEWEB-0196             
1 48218U 21031J   24064.12883105  .00000004  00000+0 -23446-4 0  9991
2 48218  87.8903  95.9026 0001847  91.4789 268.6552 13.14504012138512
ONEWEB-0183             
1 48219U 21031K   24063.64676085 -.00000216  00000+0 -61648-3 0  9996
2 48219  87.8904  96.0169 0001906  98.3500 261.7846 13.14504316138558
ONEWEB-0185             
1 48220U 21031L   24063.59679628  .00000045  00000+0  87254-4 0  9998
2 48220  87.8902  96.0000 0001837 101.9412 258.1924 13.14503786138476
ONEWEB-0187             
1 48221U 21031M   24064.09948975 -.00000177  00000+0 -51068-3 0  9990
2 48221  87.8905  95.9305 0001925 100.4915 259.6432 13.14503162138553
ONEWEB-0192             
1 48222U 21031N   24063.62296870  .00000167  00000+0  41531-3 0  9990
2 48222  87.8906  96.0230 0001765  92.7944 267.3387 13.14503233138409
ONEWEB-0219             
1 48223U 21031P   24064.13517359 -.00000220  00000+0 -62743-3 0  9996
2 48223  87.8906  95.8945 0001682  98.4201 261.7119 13.14501562138681
